{
    "links": {
        "self": "http://www.neowsapp.com/rest/v1/neo/3840845?api_key=iIulBulltgU6a56xZRHN4H3l9WmuAYTsLGpBGhQ2"
    },
    "id": "3840845",
    "neo_reference_id": "3840845",
    "name": "(2019 GM3)",
    "designation": "2019 GM3",
    "nasa_jpl_url": "http://ssd.jpl.nasa.gov/sbdb.cgi?sstr=3840845",
    "absolute_magnitude_h": 23.9,
    "estimated_diameter": {
        "kilometers": {
            "estimated_diameter_min": 0.04411182,
            "estimated_diameter_max": 0.0986370281
        },
        "meters": {
            "estimated_diameter_min": 44.1118199997,
            "estimated_diameter_max": 98.6370281305
        },
        "miles": {
            "estimated_diameter_min": 0.0274098057,
            "estimated_diameter_max": 0.0612901888
        },
        "feet": {
            "estimated_diameter_min": 144.7238235278,
            "estimated_diameter_max": 323.6123073718
        }
    },
    "is_potentially_hazardous_asteroid": false,
    "close_approach_data": [
        {
            "close_approach_date": "2019-04-22",
            "close_approach_date_full": "2019-Apr-22 14:38",
            "epoch_date_close_approach": 1555943880000,
            "relative_velocity": {
                "kilometers_per_second": "1.5929780911",
                "kilometers_per_hour": "5734.7211280426",
                "miles_per_hour": "3563.3326920329"
            },
            "miss_distance": {
                "astronomical": "0.2391921622",
                "lunar": "93.0457510958",
                "kilometers": "35782637.985814514",
                "miles": "22234300.2261837332"
            },
            "orbiting_body": "Earth"
        }
    ],
    "orbital_data": {
        "orbit_id": "4",
        "orbit_determination_date": "2019-05-03 07:27:58",
        "first_observation_date": "2019-04-02",
        "last_observation_date": "2019-05-02",
        "data_arc_in_days": 30,
        "observations_used": 19,
        "orbit_uncertainty": "7",
        "minimum_orbit_intersection": ".233035",
        "jupiter_tisserand_invariant": "4.104",
        "epoch_osculation": "2459000.5",
        "eccentricity": ".2882624783243002",
        "semi_major_axis": "1.733844810016923",
        "inclination": "3.568483528764646",
        "ascending_node_longitude": "169.0986698233078",
        "orbital_period": "833.8995914618121",
        "perihelion_distance": "1.234042408051719",
        "perihelion_argument": "47.3519879199872",
        "aphelion_distance": "2.233647211982127",
        "perihelion_time": "2458604.313210611378",
        "mean_anomaly": "171.0364720647972",
        "mean_motion": ".4317066511196223",
        "equinox": "J2000",
        "orbit_class": {
            "orbit_class_type": "AMO",
            "orbit_class_description": "Near-Earth asteroid orbits similar to that of 1221 Amor",
            "orbit_class_range": "1.017 AU < q (perihelion) < 1.3 AU"
        }
    },
    "is_sentry_object": false
}